STARLINK-35906          
1 67112U 25299L   25362.58335648 -.01941036  00000+0 -17307-1 0  9998
2 67112  42.9991 219.6730 0001444 263.4919 196.8036 15.70533130  3248
STARLINK-35789          
1 67113U 25299M   25362.58335648 -.01938583  00000+0 -17275-1 0  9996
2 67113  42.9990 219.6683 0001492 261.6694 200.3388 15.70543085  3249
STARLINK-36180          
1 67114U 25299N   25362.58335648 -.01916590  00000+0 -17065-1 0  9998
2 67114  43.0017 219.6638 0001547 268.9236 194.9621 15.70526822  3355
STARLINK-35892          
1 67115U 25299P   25362.58335648 -.02015227  00000+0 -18053-1 0  9995
2 67115  42.9992 219.6591 0002080 253.7274 211.9832 15.70533591  3244
STARLINK-35738          
1 67116U 25299Q   25362.58335648 -.01940149  00000+0 -17279-1 0  9994
2 67116  42.9992 219.6548 0001497 265.6078 201.8800 15.70559554  3242
STARLINK-35674          
1 67117U 25299R   25362.58335648 -.01939967  00000+0 -17272-1 0  9994
2 67117  42.9993 219.6509 0001430 263.1742 206.1032 15.70566918  3145
STARLINK-35701          
1 67118U 25299S   25362.58335648 -.01939885  00000+0 -17267-1 0  9998
2 67118  42.9989 219.6457 0001469 267.5833 203.5110 15.70571890  3305
STARLINK-36179          
1 67119U 25299T   25362.58335648 -.01940027  00000+0 -17242-1 0  9992
2 67119  42.9991 219.6372 0001493 262.6259 211.6865 15.70608031  3350
STARLINK-36217          
1 67120U 25299U   25362.58335648 -.01935858  00000+0 -17217-1 0  9992
2 67120  42.9990 219.6418 0001489 265.3764 207.3820 15.70584853  3356
STARLINK-36124          
1 67121U 25299V   25362.58335648 -.01937362  00000+0 -17207-1 0  9994
2 67121  42.9987 219.6286 0001387 264.2897 213.6386 15.70619907  3354
STARLINK-36188          
1 67122U 25299W   25362.58335648 -.01934423  00000+0 -17169-1 0  9997
2 67122  42.9989 219.6247 0001389 262.6905 216.9065 15.70632164  3358
STARLINK-36151          
1 67123U 25299X   25362.58335648 -.01941435  00000+0 -17250-1 0  9990
2 67123  42.9990 219.6335 0001450 265.9140 210.1879 15.70617119  3357
