CCSDS_OMM_VERS = 2.0
CREATION_DATE  = 
ORIGINATOR     = 

OBJECT_NAME    = STARLINK-35906
OBJECT_ID      = 2025-299L
CENTER_NAME    = EARTH
REF_FRAME      = TEME
TIME_SYSTEM    = UTC
MEAN_ELEMENT_THEORY = SGP/SGP4

EPOCH          = 2025-12-28T14:00:01.999872
MEAN_MOTION    = 15.70533130
ECCENTRICITY   = .00014443
INCLINATION    = 42.9991
RA_OF_ASC_NODE = 219.6730
ARG_OF_PERICENTER = 263.4919
MEAN_ANOMALY   = 196.8036

EPHEMERIS_TYPE = 0
CLASSIFICATION_TYPE = U
NORAD_CAT_ID   = 67112
ELEMENT_SET_NO = 999
REV_AT_EPOCH   = 324
BSTAR          = -.173073E-1
MEAN_MOTION_DOT = -.1941036E-1
MEAN_MOTION_DDOT = 0

CCSDS_OMM_VERS = 2.0
CREATION_DATE  = 
ORIGINATOR     = 

OBJECT_NAME    = STARLINK-35789
OBJECT_ID      = 2025-299M
CENTER_NAME    = EARTH
REF_FRAME      = TEME
TIME_SYSTEM    = UTC
MEAN_ELEMENT_THEORY = SGP/SGP4

EPOCH          = 2025-12-28T14:00:01.999872
MEAN_MOTION    = 15.70543085
ECCENTRICITY   = .00014929
INCLINATION    = 42.9990
RA_OF_ASC_NODE = 219.6683
ARG_OF_PERICENTER = 261.6694
MEAN_ANOMALY   = 200.3388

EPHEMERIS_TYPE = 0
CLASSIFICATION_TYPE = U
NORAD_CAT_ID   = 67113
ELEMENT_SET_NO = 999
REV_AT_EPOCH   = 324
BSTAR          = -.17274907E-1
MEAN_MOTION_DOT = -.1938583E-1
MEAN_MOTION_DDOT = 0

CCSDS_OMM_VERS = 2.0
CREATION_DATE  = 
ORIGINATOR     = 

OBJECT_NAME    = STARLINK-36180
OBJECT_ID      = 2025-299N
CENTER_NAME    = EARTH
REF_FRAME      = TEME
TIME_SYSTEM    = UTC
MEAN_ELEMENT_THEORY = SGP/SGP4

EPOCH          = 2025-12-28T14:00:01.999872
MEAN_MOTION    = 15.70526822
ECCENTRICITY   = .00015471
INCLINATION    = 43.0017
RA_OF_ASC_NODE = 219.6638
ARG_OF_PERICENTER = 268.9236
MEAN_ANOMALY   = 194.9621

EPHEMERIS_TYPE = 0
CLASSIFICATION_TYPE = U
NORAD_CAT_ID   = 67114
ELEMENT_SET_NO = 999
REV_AT_EPOCH   = 335
BSTAR          = -.17065163E-1
MEAN_MOTION_DOT = -.191659E-1
MEAN_MOTION_DDOT = 0

CCSDS_OMM_VERS = 2.0
CREATION_DATE  = 
ORIGINATOR     = 

OBJECT_NAME    = STARLINK-35892
OBJECT_ID      = 2025-299P
CENTER_NAME    = EARTH
REF_FRAME      = TEME
TIME_SYSTEM    = UTC
MEAN_ELEMENT_THEORY = SGP/SGP4

EPOCH          = 2025-12-28T14:00:01.999872
MEAN_MOTION    = 15.70533591
ECCENTRICITY   = .00020807
INCLINATION    = 42.9992
RA_OF_ASC_NODE = 219.6591
ARG_OF_PERICENTER = 253.7274
MEAN_ANOMALY   = 211.9832

EPHEMERIS_TYPE = 0
CLASSIFICATION_TYPE = U
NORAD_CAT_ID   = 67115
ELEMENT_SET_NO = 999
REV_AT_EPOCH   = 324
BSTAR          = -.18053189E-1
MEAN_MOTION_DOT = -.2015227E-1
MEAN_MOTION_DDOT = 0

CCSDS_OMM_VERS = 2.0
CREATION_DATE  = 
ORIGINATOR     = 

OBJECT_NAME    = STARLINK-35738
OBJECT_ID      = 2025-299Q
CENTER_NAME    = EARTH
REF_FRAME      = TEME
TIME_SYSTEM    = UTC
MEAN_ELEMENT_THEORY = SGP/SGP4

EPOCH          = 2025-12-28T14:00:01.999872
MEAN_MOTION    = 15.70559554
ECCENTRICITY   = .00014973
INCLINATION    = 42.9992
RA_OF_ASC_NODE = 219.6548
ARG_OF_PERICENTER = 265.6078
MEAN_ANOMALY   = 201.8800

EPHEMERIS_TYPE = 0
CLASSIFICATION_TYPE = U
NORAD_CAT_ID   = 67116
ELEMENT_SET_NO = 999
REV_AT_EPOCH   = 324
BSTAR          = -.17278591E-1
MEAN_MOTION_DOT = -.1940149E-1
MEAN_MOTION_DDOT = 0

CCSDS_OMM_VERS = 2.0
CREATION_DATE  = 
ORIGINATOR     = 

OBJECT_NAME    = STARLINK-35674
OBJECT_ID      = 2025-299R
CENTER_NAME    = EARTH
REF_FRAME      = TEME
TIME_SYSTEM    = UTC
MEAN_ELEMENT_THEORY = SGP/SGP4

EPOCH          = 2025-12-28T14:00:01.999872
MEAN_MOTION    = 15.70566918
ECCENTRICITY   = .000143
INCLINATION    = 42.9993
RA_OF_ASC_NODE = 219.6509
ARG_OF_PERICENTER = 263.1742
MEAN_ANOMALY   = 206.1032

EPHEMERIS_TYPE = 0
CLASSIFICATION_TYPE = U
NORAD_CAT_ID   = 67117
ELEMENT_SET_NO = 999
REV_AT_EPOCH   = 314
BSTAR          = -.17271899E-1
MEAN_MOTION_DOT = -.1939967E-1
MEAN_MOTION_DDOT = 0

CCSDS_OMM_VERS = 2.0
CREATION_DATE  = 
ORIGINATOR     = 

OBJECT_NAME    = STARLINK-35701
OBJECT_ID      = 2025-299S
CENTER_NAME    = EARTH
REF_FRAME      = TEME
TIME_SYSTEM    = UTC
MEAN_ELEMENT_THEORY = SGP/SGP4

EPOCH          = 2025-12-28T14:00:01.999872
MEAN_MOTION    = 15.70571890
ECCENTRICITY   = .00014691
INCLINATION    = 42.9989
RA_OF_ASC_NODE = 219.6457
ARG_OF_PERICENTER = 267.5833
MEAN_ANOMALY   = 203.5110

EPHEMERIS_TYPE = 0
CLASSIFICATION_TYPE = U
NORAD_CAT_ID   = 67118
ELEMENT_SET_NO = 999
REV_AT_EPOCH   = 330
BSTAR          = -.17267123E-1
MEAN_MOTION_DOT = -.1939885E-1
MEAN_MOTION_DDOT = 0

CCSDS_OMM_VERS = 2.0
CREATION_DATE  = 
ORIGINATOR     = 

OBJECT_NAME    = STARLINK-36179
OBJECT_ID      = 2025-299T
CENTER_NAME    = EARTH
REF_FRAME      = TEME
TIME_SYSTEM    = UTC
MEAN_ELEMENT_THEORY = SGP/SGP4

EPOCH          = 2025-12-28T14:00:01.999872
MEAN_MOTION    = 15.70608031
ECCENTRICITY   = .0001493
INCLINATION    = 42.9991
RA_OF_ASC_NODE = 219.6372
ARG_OF_PERICENTER = 262.6259
MEAN_ANOMALY   = 211.6865

EPHEMERIS_TYPE = 0
CLASSIFICATION_TYPE = U
NORAD_CAT_ID   = 67119
ELEMENT_SET_NO = 999
REV_AT_EPOCH   = 335
BSTAR          = -.17241939E-1
MEAN_MOTION_DOT = -.1940027E-1
MEAN_MOTION_DDOT = 0

CCSDS_OMM_VERS = 2.0
CREATION_DATE  = 
ORIGINATOR     = 

OBJECT_NAME    = STARLINK-36217
OBJECT_ID      = 2025-299U
CENTER_NAME    = EARTH
REF_FRAME      = TEME
TIME_SYSTEM    = UTC
MEAN_ELEMENT_THEORY = SGP/SGP4

EPOCH          = 2025-12-28T14:00:01.999872
MEAN_MOTION    = 15.70584853
ECCENTRICITY   = .00014894
INCLINATION    = 42.9990
RA_OF_ASC_NODE = 219.6418
ARG_OF_PERICENTER = 265.3764
MEAN_ANOMALY   = 207.3820

EPHEMERIS_TYPE = 0
CLASSIFICATION_TYPE = U
NORAD_CAT_ID   = 67120
ELEMENT_SET_NO = 999
REV_AT_EPOCH   = 335
BSTAR          = -.17217009E-1
MEAN_MOTION_DOT = -.1935858E-1
MEAN_MOTION_DDOT = 0

CCSDS_OMM_VERS = 2.0
CREATION_DATE  = 
ORIGINATOR     = 

OBJECT_NAME    = STARLINK-36124
OBJECT_ID      = 2025-299V
CENTER_NAME    = EARTH
REF_FRAME      = TEME
TIME_SYSTEM    = UTC
MEAN_ELEMENT_THEORY = SGP/SGP4

EPOCH          = 2025-12-28T14:00:01.999872
MEAN_MOTION    = 15.70619907
ECCENTRICITY   = .00013874
INCLINATION    = 42.9987
RA_OF_ASC_NODE = 219.6286
ARG_OF_PERICENTER = 264.2897
MEAN_ANOMALY   = 213.6386

EPHEMERIS_TYPE = 0
CLASSIFICATION_TYPE = U
NORAD_CAT_ID   = 67121
ELEMENT_SET_NO = 999
REV_AT_EPOCH   = 335
BSTAR          = -.17207323E-1
MEAN_MOTION_DOT = -.1937362E-1
MEAN_MOTION_DDOT = 0

CCSDS_OMM_VERS = 2.0
CREATION_DATE  = 
ORIGINATOR     = 

OBJECT_NAME    = STARLINK-36188
OBJECT_ID      = 2025-299W
CENTER_NAME    = EARTH
REF_FRAME      = TEME
TIME_SYSTEM    = UTC
MEAN_ELEMENT_THEORY = SGP/SGP4

EPOCH          = 2025-12-28T14:00:01.999872
MEAN_MOTION    = 15.70632164
ECCENTRICITY   = .00013897
INCLINATION    = 42.9989
RA_OF_ASC_NODE = 219.6247
ARG_OF_PERICENTER = 262.6905
MEAN_ANOMALY   = 216.9065

EPHEMERIS_TYPE = 0
CLASSIFICATION_TYPE = U
NORAD_CAT_ID   = 67122
ELEMENT_SET_NO = 999
REV_AT_EPOCH   = 335
BSTAR          = -.17168901E-1
MEAN_MOTION_DOT = -.1934423E-1
MEAN_MOTION_DDOT = 0

CCSDS_OMM_VERS = 2.0
CREATION_DATE  = 
ORIGINATOR     = 

OBJECT_NAME    = STARLINK-36151
OBJECT_ID      = 2025-299X
CENTER_NAME    = EARTH
REF_FRAME      = TEME
TIME_SYSTEM    = UTC
MEAN_ELEMENT_THEORY = SGP/SGP4

EPOCH          = 2025-12-28T14:00:01.999872
MEAN_MOTION    = 15.70617119
ECCENTRICITY   = .00014503
INCLINATION    = 42.9990
RA_OF_ASC_NODE = 219.6335
ARG_OF_PERICENTER = 265.9140
MEAN_ANOMALY   = 210.1879

EPHEMERIS_TYPE = 0
CLASSIFICATION_TYPE = U
NORAD_CAT_ID   = 67123
ELEMENT_SET_NO = 999
REV_AT_EPOCH   = 335
BSTAR          = -.17249775E-1
MEAN_MOTION_DOT = -.1941435E-1
MEAN_MOTION_DDOT = 0

